STARLINK-1121           
1 44929U 20001R   21156.53393540 -.00000001  00000-0  18834-4 0  9998
2 44929  53.0575 229.5024 0000871 141.8335 218.2716 15.06388166 77869
STARLINK-1123           
1 44930U 20001S   21156.43441234  .00000649  00000-0  62464-4 0  9998
2 44930  53.0574 229.9480 0000667 134.9214 225.1829 15.06400860 77859
STARLINK-1128           
1 44931U 20001T   21156.47864008 -.00001331  00000-0 -70511-4 0  9994
2 44931  53.0571 229.7531 0000875 124.1371 235.9701 15.06391150 78601
STARLINK-1130 (DARKSAT) 
1 44932U 20001U   21156.48970039  .00000318  00000-0  40220-4 0  9994
2 44932  53.0564 229.7016 0000985 111.1135 248.9959 15.06393184 79090
STARLINK-1144           
1 44933U 20001V   21156.51550413 -.00001210  00000-0 -62412-4 0  9990
2 44933  53.0572 229.5841 0000629 123.5848 236.5201 15.06393805 79157
STARLINK-1071           
1 44934U 20001W   21156.46205495  .00000593  00000-0  58670-4 0  9994
2 44934  53.0575 209.8294 0000832 127.6017 232.5048 15.06405366 78131
STARLINK-1072           
1 44935U 20001X   21156.62793659  .00000578  00000-0  57663-4 0  9991
2 44935  53.0574 209.0848 0000272 128.0536 232.0477 15.06396737 78162
STARLINK-1078           
1 44936U 20001Y   21156.71178958  .00307810  00000-0  70905-2 0  9992
2 44936  53.0626 204.9644 0001575  71.2732 288.8443 15.40910396 78223
STARLINK-1079           
1 44937U 20001Z   21156.43997091  .00000314  00000-0  39976-4 0  9993
2 44937  53.0573 209.9212 0000432 115.8875 244.2158 15.06390910 78130
STARLINK-1082           
1 44938U 20001AA  21156.40676437 -.00001195  00000-0 -61362-4 0  9993
2 44938  53.0556 210.0741 0000470 120.6592 239.4444 15.06392712 78129
STARLINK-1083           
1 44939U 20001AB  21156.41416223  .00000380  00000-0  44414-4 0  9992
2 44939  53.0569 210.0404 0000694 113.9753 246.1308 15.06389731 78123
STARLINK-1091           
1 44940U 20001AC  21156.62423686  .00000622  00000-0  60644-4 0  9990
2 44940  53.0575 209.1031 0000382 102.7113 257.3919 15.06401506 78157
STARLINK-1094           
1 44941U 20001AD  21156.38095820  .00000423  00000-0  47244-4 0  9999
2 44941  53.0555 210.1923 0000731 121.0054 239.1007 15.06403751 78121
STARLINK-1096           
1 44942U 20001AE  21156.63163762  .00000672  00000-0  63994-4 0  9995
2 44942  53.0568 209.0632 0000400 119.6387 240.4642 15.06393069 78169
STARLINK-1100           
1 44943U 20001AF  21156.41047714  .00000293  00000-0  38572-4 0  9993
2 44943  53.0573 210.0534 0000731 136.0907 224.0141 15.06381190 78127
STARLINK-1108           
1 44944U 20001AG  21156.45838788  .00000378  00000-0  44277-4 0  9990
2 44944  53.0573 209.8431 0000905 117.7835 242.3246 15.06383987 78135
STARLINK-1109           
1 44945U 20001AH  21156.55422793  .00000839  00000-0  75174-4 0  9999
2 44945  53.0571 209.4135 0000425 122.1245 237.9785 15.06387725 78146
STARLINK-1110           
1 44946U 20001AJ  21156.55289705  .00001341  00000-0  10638-3 0  9996
2 44946  53.0035 207.6341 0001547 133.0292 227.0826 15.07318397 78168
STARLINK-1116           
1 44947U 20001AK  21156.77537000  .00000435  00000-0  48079-4 0  9999
2 44947  53.0569 208.4240 0000460  95.9171 264.1871 15.06386885 78183
STARLINK-1122           
1 44949U 20001AM  21156.53576730  .00000518  00000-0  53672-4 0  9995
2 44949  53.0565 209.4877 0000724 111.0713 249.0353 15.06401859 78145
STARLINK-1125           
1 44950U 20001AN  21156.41781763 -.00000961  00000-0 -45638-4 0  9995
2 44950  53.0573 210.0231 0000621 127.1516 232.9530 15.06393809 78124
STARLINK-1126           
1 44951U 20001AP  21156.53565607  .00001352  00000-0  10758-3 0  9993
2 44951  53.0027 208.0948 0001593 128.5873 231.5258 15.07153182 79448
STARLINK-1117           
1 44952U 20001AQ  21156.51734617 -.00001465  00000-0 -79523-4 0  9994
2 44952  53.0556 209.5778 0000896 114.0911 246.0172 15.06390853 78140
STARLINK-1124           
1 44953U 20001AR  21156.53210490  .00000273  00000-0  37229-4 0  9996
2 44953  53.0559 209.5121 0000797 105.9792 254.1285 15.06385435 79430
STARLINK-1066           
1 44954U 20001AS  21156.61502713 -.00001247  00000-0 -64874-4 0  9998
2 44954  53.0543 189.1401 0000596  87.2012 272.9045 15.06387689 78380
STARLINK-1069           
1 44955U 20001AT  21156.48971365  .00000319  00000-0  40270-4 0  9998
2 44955  53.0558 189.7072 0000671 101.7537 258.3528 15.06393289 78360
STARLINK-1070           
1 44956U 20001AU  21156.35333477  .00000393  00000-0  45247-4 0  9992
2 44956  53.0552 190.3094 0000310 110.1458 249.9565 15.06392412 78402
STARLINK-1074           
1 44957U 20001AV  21156.77723629  .00000096  00000-0  25315-4 0  9995
2 44957  53.0561 188.4171 0000739 106.3975 253.7096 15.06384396 78463
STARLINK-1075           
1 44958U 20001AW  21156.34251892  .00006795  00000-0  14042-3 0  9993
2 44958  53.0537 184.4067 0001152 357.3466   2.7534 15.47080975 78482
STARLINK-1076           
1 44959U 20001AX  21156.79195594 -.00001436  00000-0 -77560-4 0  9993
2 44959  53.0541 188.3478 0000797  93.0453 267.0628 15.06384812 78461
STARLINK-1080           
1 44961U 20001AZ  21156.40125623  .00000241  00000-0  35070-4 0  9991
2 44961  53.0536 190.1036 0000490 105.3771 254.7272 15.06392513 78419
STARLINK-1081           
1 44962U 20001BA  21156.77580456  .00000952  00000-0  31334-4 0  9999
2 44962  53.0572 183.6681 0001219  93.4030 266.7114 15.42157227 78529
STARLINK-1085           
1 44963U 20001BB  21156.49425200  .00001569  00000-0  12161-3 0  9995
2 44963  52.9997 188.1121 0001082  51.6440 308.4646 15.07218166 79174
STARLINK-1086           
1 44964U 20001BC  21156.36440136  .00000256  00000-0  36036-4 0  9997
2 44964  53.0544 190.2685 0000517 106.8245 253.2801 15.06393595 78406
STARLINK-1088           
1 44966U 20001BE  21156.78458379  .00001981  00000-0  15178-3 0  9992
2 44966  53.0534 188.3848 0000537  97.6328 262.4722 15.06403702 78469
STARLINK-1089           
1 44967U 20001BF  21156.47498625  .00000187  00000-0  31444-4 0  9999
2 44967  53.0537 189.7736 0000484  84.1494 275.9550 15.06391631 78421
STARLINK-1090           
1 44968U 20001BG  21156.47128731  .00000309  00000-0  39639-4 0  9998
2 44968  53.0534 189.7893 0000440  84.7732 275.3307 15.06392321 78427
STARLINK-1092           
1 44969U 20001BH  21156.79565985  .00000451  00000-0  49152-4 0  9999
2 44969  53.0553 188.3254 0000513  84.9887 275.1161 15.06390393 78466
STARLINK-1093           
1 44970U 20001BJ  21156.44179298  .00002016  00000-0  15419-3 0  9998
2 44970  53.0560 189.8956 0000995  75.3139 284.7960 15.06399525 78402
STARLINK-1095           
1 44971U 20001BK  21156.78662443  .00344568  00000-0  75143-2 0  9995
2 44971  53.0049 184.3252 0001174  53.9368 306.1744 15.42405791 78514
STARLINK-1107           
1 44972U 20001BL  21156.41228811  .00000543  00000-0  55323-4 0  9995
2 44972  53.0547 190.0549 0000627  92.0622 268.0438 15.06401812 78415
STARLINK-1115           
1 44973U 20001BM  21156.78826569 -.00001432  00000-0 -77264-4 0  9998
2 44973  53.0540 188.3619 0000845  88.8932 271.2154 15.06398513 78465
TJS-5                   
1 44978U 20002A   21156.45815434 -.00000339  00000-0  00000-0 0  9991
2 44978   0.2072  94.9974 0002388 357.9357  73.5564  1.00266549  5274
JILIN-01 KUANFU 01      
1 45016U 20003A   21156.83683900  .00000791  00000-0  31606-4 0  9990
2 45016  97.2698 221.2419 0010305 271.2548 180.1543 15.27966107 77491
NUSAT-7 (SOPHIE)        
1 45017U 20003B   21156.79822654  .00001425  00000-0  51072-4 0  9991
2 45017  97.2644 222.0594 0011782 264.8788 227.7590 15.30314772 77567
NUSAT-8 (MARIE)         
1 45018U 20003C   21156.79605582 -.00049872  00000-0 -16034-2 0  9998
2 45018  97.2763 221.8837 0010536 267.5332 160.3232 15.32359410 77529
TIANQI-5                
1 45019U 20003D   21156.81364527  .00001106  00000-0  42321-4 0  9999
2 45019  97.2696 221.5675 0011243 276.7042 176.6739 15.28602611 77518
YINHE-1                 
1 45024U 20004A   21156.81071090  .00000120  00000-0  13915-4 0  9998
2 45024  86.3994 217.9986 0012608 305.9277  54.0771 14.75306752 74777
GSAT-30                 
1 45026U 20005A   21156.73252865 -.00000160  00000-0  00000+0 0  9994
2 45026   0.0121 351.5135 0005618  88.5358 161.0341  1.00269323  5101
EUTELSAT KONNECT        
1 45027U 20005B   21156.35855622  .00000053  00000-0  00000-0 0  9994
2 45027   0.0490 126.9955 0000285 312.2387 311.0699  1.00272382  5909
STPSAT-4                
1 45043U 98067QY  21156.55659555  .00005481  00000-0  90026-4 0  9995
2 45043  51.6418  32.9760 0004536 223.8814 136.1817 15.54112862 76652
STARLINK-1132           
1 45044U 20006A   21156.36440751  .00000140  00000-0  28245-4 0  9990
2 45044  53.0558 150.2650 0000646  25.5349 334.5671 15.06395862 74733
STARLINK-1120           
1 45045U 20006B   21156.35147360  .00000222  00000-0  33745-4 0  9992
2 45045  53.0548 170.3258 0000781  64.2258 295.8811 15.06402997 74451
STARLINK-1129           
1 45046U 20006C   21156.31157769  .00001629  00000-0  12581-3 0  9999
2 45046  52.9980 169.0607 0000783  79.8367 280.2710 15.07145027 74453
STARLINK-1131           
1 45047U 20006D   21156.35515089  .00000597  00000-0  58947-4 0  9997
2 45047  53.0550 170.2997 0000549  53.3949 306.7090 15.06406037 74453
STARLINK-1134           
1 45048U 20006E   21156.29619626 -.00001430  00000-0 -77181-4 0  9993
2 45048  53.0545 170.5628 0000742  61.2158 298.8905 15.06394361 74448
STARLINK-1135           
1 45049U 20006F   21156.43257804  .00001733  00000-0  13522-3 0  9998
2 45049  53.0556 169.9629 0000893  84.7922 275.3169 15.06389346 74461
STARLINK-1140           
1 45050U 20006G   21156.37358129 -.00000195  00000-0  57742-5 0  9991
2 45050  53.0545 170.2286 0000698  38.0191 322.0847 15.06402306 74452
STARLINK-1141           
1 45051U 20006H   21156.30358642 -.00000014  00000-0  17911-4 0  9998
2 45051  53.0547 170.5447 0000883 109.8741 250.2343 15.06393704 74444
